start=new Date('2022-08-22T00:00:00.000Z').valueOf();
sats=[{"EPHEMERIS_TYPE":"0","REF_FRAME":"TEME","ARG_OF_PERICENTER":"68.2884","PERIAPSIS":"538.551","TIME_SYSTEM":"UTC","EPOCH":"2022-08-21T22:00:00.999936","BSTAR":"0.00097174000000","OBJECT_TYPE":"PAYLOAD","NORAD_CAT_ID":"51977","TLE_LINE2":"2 51977  53.2164  76.0809 0001780  68.2884  49.0063 15.08828012  1305","MEAN_MOTION":"15.08828012","COUNTRY_CODE":"US","SITE":"AFETR","MEAN_MOTION_DDOT":"0.0000000000000","RA_OF_ASC_NODE":"76.0809","TLE_LINE1":"1 51977U 22025X   22233.91667824  .00015206  00000-0  97174-3 0  9990","APOAPSIS":"541.013","MEAN_ANOMALY":"49.0063","RCS_SIZE":"LARGE","DECAY_DATE":null,"OBJECT_ID":"2022-025X","FILE":"3542671","OBJECT_NAME":"STARLINK-3660","CLASSIFICATION_TYPE":"U","PERIOD":"95.438","ECCENTRICITY":"0.00017800","GP_ID":"210693162","SEMIMAJOR_AXIS":"6917.917","MEAN_MOTION_DOT":"0.00015206","LAUNCH_DATE":"2022-03-09","MEAN_ELEMENT_THEORY":"SGP4","REV_AT_EPOCH":"130","CENTER_NAME":"EARTH","ELEMENT_SET_NO":"999","INCLINATION":"53.2164"},{"LAUNCH_DATE":"2022-03-09","MEAN_MOTION_DOT":"-0.00003184","SEMIMAJOR_AXIS":"6917.899","GP_ID":"210693415","ECCENTRICITY":"0.00016540","INCLINATION":"53.2160","ELEMENT_SET_NO":"999","REV_AT_EPOCH":"130","CENTER_NAME":"EARTH","MEAN_ELEMENT_THEORY":"SGP4","DECAY_DATE":null,"RCS_SIZE":"LARGE","APOAPSIS":"540.909","TLE_LINE1":"1 51978U 22025Y   22233.91667824 -.00003184  00000-0 -18208-3 0  9996","MEAN_ANOMALY":"102.7701","PERIOD":"95.438","OBJECT_NAME":"STARLINK-3666","CLASSIFICATION_TYPE":"U","OBJECT_ID":"2022-025Y","FILE":"3542671","TLE_LINE2":"2 51978  53.2160  96.0639 0001654  64.4870 102.7701 15.08833806  1301","NORAD_CAT_ID":"51978","BSTAR":"-0.00018208000000","OBJECT_TYPE":"PAYLOAD","EPOCH":"2022-08-21T22:00:00.999936","RA_OF_ASC_NODE":"96.0639","MEAN_MOTION_DDOT":"0.0000000000000","SITE":"AFETR","COUNTRY_CODE":"US","MEAN_MOTION":"15.08833806","REF_FRAME":"TEME","EPHEMERIS_TYPE":"0","TIME_SYSTEM":"UTC","PERIAPSIS":"538.620","ARG_OF_PERICENTER":"64.4870"},{"CLASSIFICATION_TYPE":"U","OBJECT_NAME":"STARLINK-3656","FILE":"3542671","OBJECT_ID":"2022-025Z","PERIOD":"95.438","TLE_LINE1":"1 51979U 22025Z   22233.91667824 -.00009229  00000-0 -56251-3 0  9993","MEAN_ANOMALY":"19.9633","APOAPSIS":"540.947","DECAY_DATE":null,"RCS_SIZE":"LARGE","ELEMENT_SET_NO":"999","REV_AT_EPOCH":"130","MEAN_ELEMENT_THEORY":"SGP4","CENTER_NAME":"EARTH","INCLINATION":"53.2182","GP_ID":"210692164","SEMIMAJOR_AXIS":"6917.888","ECCENTRICITY":"0.00017260","LAUNCH_DATE":"2022-03-09","MEAN_MOTION_DOT":"-0.00009229","PERIAPSIS":"538.559","ARG_OF_PERICENTER":"67.3431","TIME_SYSTEM":"UTC","EPHEMERIS_TYPE":"0","REF_FRAME":"TEME","COUNTRY_CODE":"US","MEAN_MOTION":"15.08837504","RA_OF_ASC_NODE":"96.0800","MEAN_MOTION_DDOT":"0.0000000000000","SITE":"AFETR","OBJECT_TYPE":"PAYLOAD","BSTAR":"-0.00056251000000","EPOCH":"2022-08-21T22:00:00.999936","TLE_LINE2":"2 51979  53.2182  96.0800 0001726  67.3431  19.9633 15.08837504  1303","NORAD_CAT_ID":"51979"},{"GP_ID":"210692414","SEMIMAJOR_AXIS":"6917.944","ECCENTRICITY":"0.00017250","LAUNCH_DATE":"2022-03-09","MEAN_MOTION_DOT":"-0.00000588","ELEMENT_SET_NO":"999","REV_AT_EPOCH":"130","CENTER_NAME":"EARTH","MEAN_ELEMENT_THEORY":"SGP4","INCLINATION":"53.2152","TLE_LINE1":"1 51980U 22025AA  22233.91667824 -.00000588  00000-0 -18880-4 0  9991","APOAPSIS":"541.002","MEAN_ANOMALY":"137.5833","DECAY_DATE":null,"RCS_SIZE":"LARGE","CLASSIFICATION_TYPE":"U","OBJECT_NAME":"STARLINK-3649","FILE":"3542671","OBJECT_ID":"2022-025AA","PERIOD":"95.439","OBJECT_TYPE":"PAYLOAD","BSTAR":"-0.00001888000000","EPOCH":"2022-08-21T22:00:00.999936","TLE_LINE2":"2 51980  53.2152  96.0640 0001725  69.7039 137.5833 15.08819266  1307","NORAD_CAT_ID":"51980","COUNTRY_CODE":"US","MEAN_MOTION":"15.08819266","RA_OF_ASC_NODE":"96.0640","SITE":"AFETR","MEAN_MOTION_DDOT":"0.0000000000000","EPHEMERIS_TYPE":"0","REF_FRAME":"TEME","PERIAPSIS":"538.615","ARG_OF_PERICENTER":"69.7039","TIME_SYSTEM":"UTC"},{"RA_OF_ASC_NODE":"96.0860","SITE":"AFETR","MEAN_MOTION_DDOT":"0.0000000000000","COUNTRY_CODE":"US","MEAN_MOTION":"15.08835401","TLE_LINE2":"2 51981  53.2123  96.0860 0002042  48.8980  78.4218 15.08835401  1305","NORAD_CAT_ID":"51981","OBJECT_TYPE":"PAYLOAD","BSTAR":"-0.00037442000000","EPOCH":"2022-08-21T22:00:00.999936","TIME_SYSTEM":"UTC","PERIAPSIS":"538.347","ARG_OF_PERICENTER":"48.8980","REF_FRAME":"TEME","EPHEMERIS_TYPE":"0","INCLINATION":"53.2123","ELEMENT_SET_NO":"999","REV_AT_EPOCH":"130","MEAN_ELEMENT_THEORY":"SGP4","CENTER_NAME":"EARTH","LAUNCH_DATE":"2022-03-09","MEAN_MOTION_DOT":"-0.00006242","SEMIMAJOR_AXIS":"6917.894","GP_ID":"210693662","ECCENTRICITY":"0.00020420","PERIOD":"95.438","CLASSIFICATION_TYPE":"U","OBJECT_NAME":"STARLINK-3635","FILE":"3542671","OBJECT_ID":"2022-025AB","DECAY_DATE":null,"RCS_SIZE":"LARGE","TLE_LINE1":"1 51981U 22025AB  22233.91667824 -.00006242  00000-0 -37442-3 0  9999","APOAPSIS":"541.172","MEAN_ANOMALY":"78.4218"},{"TLE_LINE1":"1 51982U 22025AC  22233.91667824 -.00000462  00000-0 -10926-4 0  9997","APOAPSIS":"541.009","MEAN_ANOMALY":"167.9731","RCS_SIZE":"LARGE","DECAY_DATE":null,"FILE":"3542671","OBJECT_ID":"2022-025AC","CLASSIFICATION_TYPE":"U","OBJECT_NAME":"STARLINK-3650","PERIOD":"95.438","ECCENTRICITY":"0.00018110","GP_ID":"210693915","SEMIMAJOR_AXIS":"6917.891","MEAN_MOTION_DOT":"-0.00000462","LAUNCH_DATE":"2022-03-09","REV_AT_EPOCH":"130","CENTER_NAME":"EARTH","MEAN_ELEMENT_THEORY":"SGP4","ELEMENT_SET_NO":"999","INCLINATION":"53.2158","EPHEMERIS_TYPE":"0","REF_FRAME":"TEME","ARG_OF_PERICENTER":"59.2706","PERIAPSIS":"538.504","TIME_SYSTEM":"UTC","EPOCH":"2022-08-21T22:00:00.999936","OBJECT_TYPE":"PAYLOAD","BSTAR":"-0.00001092600000","NORAD_CAT_ID":"51982","TLE_LINE2":"2 51982  53.2158  96.0639 0001811  59.2706 167.9731 15.08836368  1300","MEAN_MOTION":"15.08836368","COUNTRY_CODE":"US","MEAN_MOTION_DDOT":"0.0000000000000","SITE":"AFETR","RA_OF_ASC_NODE":"96.0639"},{"MEAN_ANOMALY":"79.3977","TLE_LINE1":"1 51983U 22025AD  22233.91667824 -.00005143  00000-0 -30532-3 0  9993","APOAPSIS":"540.943","RCS_SIZE":"LARGE","DECAY_DATE":null,"FILE":"3542671","OBJECT_ID":"2022-025AD","CLASSIFICATION_TYPE":"U","OBJECT_NAME":"STARLINK-3655","PERIOD":"95.438","ECCENTRICITY":"0.00017010","SEMIMAJOR_AXIS":"6917.901","GP_ID":"210692664","MEAN_MOTION_DOT":"-0.00005143","LAUNCH_DATE":"2022-03-09","MEAN_ELEMENT_THEORY":"SGP4","REV_AT_EPOCH":"130","CENTER_NAME":"EARTH","ELEMENT_SET_NO":"999","INCLINATION":"53.2134","EPHEMERIS_TYPE":"0","REF_FRAME":"TEME","ARG_OF_PERICENTER":"67.8478","PERIAPSIS":"538.590","TIME_SYSTEM":"UTC","EPOCH":"2022-08-21T22:00:00.999936","OBJECT_TYPE":"PAYLOAD","BSTAR":"-0.00030532000000","NORAD_CAT_ID":"51983","TLE_LINE2":"2 51983  53.2134  96.0777 0001701  67.8478  79.3977 15.08833123  1301","MEAN_MOTION":"15.08833123","COUNTRY_CODE":"US","SITE":"AFETR","MEAN_MOTION_DDOT":"0.0000000000000","RA_OF_ASC_NODE":"96.0777"},{"PERIOD":"95.438","FILE":"3542671","OBJECT_ID":"2022-025AE","CLASSIFICATION_TYPE":"U","OBJECT_NAME":"STARLINK-3664","RCS_SIZE":"LARGE","DECAY_DATE":null,"MEAN_ANOMALY":"281.5327","TLE_LINE1":"1 51984U 22025AE  22233.91667824 -.00006369  00000-0 -38238-3 0  9996","APOAPSIS":"541.139","INCLINATION":"53.2177","REV_AT_EPOCH":"130","CENTER_NAME":"EARTH","MEAN_ELEMENT_THEORY":"SGP4","ELEMENT_SET_NO":"999","MEAN_MOTION_DOT":"-0.00006369","LAUNCH_DATE":"2022-03-09","ECCENTRICITY":"0.00020170","SEMIMAJOR_AXIS":"6917.879","GP_ID":"210692914","TIME_SYSTEM":"UTC","ARG_OF_PERICENTER":"65.6357","PERIAPSIS":"538.348","REF_FRAME":"TEME","EPHEMERIS_TYPE":"0","SITE":"AFETR","MEAN_MOTION_DDOT":"0.0000000000000","RA_OF_ASC_NODE":"96.0681","MEAN_MOTION":"15.08840606","COUNTRY_CODE":"US","NORAD_CAT_ID":"51984","TLE_LINE2":"2 51984  53.2177  96.0681 0002017  65.6357 281.5327 15.08840606  1306","EPOCH":"2022-08-21T22:00:00.999936","OBJECT_TYPE":"PAYLOAD","BSTAR":"-0.00038238000000"},{"OBJECT_NAME":"STARLINK-3651","CLASSIFICATION_TYPE":"U","OBJECT_ID":"2022-025AF","FILE":"3542671","PERIOD":"95.437","MEAN_ANOMALY":"123.3876","TLE_LINE1":"1 51985U 22025AF  22233.91667824 -.00046155  00000-0 -28997-2 0  9994","APOAPSIS":"540.950","DECAY_DATE":null,"RCS_SIZE":"LARGE","ELEMENT_SET_NO":"999","REV_AT_EPOCH":"130","MEAN_ELEMENT_THEORY":"SGP4","CENTER_NAME":"EARTH","INCLINATION":"53.2165","GP_ID":"210693163","SEMIMAJOR_AXIS":"6917.849","ECCENTRICITY":"0.00017870","LAUNCH_DATE":"2022-03-09","MEAN_MOTION_DOT":"-0.00046155","PERIAPSIS":"538.478","ARG_OF_PERICENTER":"63.8988","TIME_SYSTEM":"UTC","EPHEMERIS_TYPE":"0","REF_FRAME":"TEME","COUNTRY_CODE":"US","MEAN_MOTION":"15.08850250","RA_OF_ASC_NODE":"96.0693","SITE":"AFETR","MEAN_MOTION_DDOT":"0.0000000000000","BSTAR":"-0.00289970000000","OBJECT_TYPE":"PAYLOAD","EPOCH":"2022-08-21T22:00:00.999936","TLE_LINE2":"2 51985  53.2165  96.0693 0001787  63.8988 123.3876 15.08850250  1308","NORAD_CAT_ID":"51985"},{"ARG_OF_PERICENTER":"52.8318","PERIAPSIS":"538.651","TIME_SYSTEM":"UTC","EPHEMERIS_TYPE":"0","REF_FRAME":"TEME","MEAN_MOTION":"15.08823378","COUNTRY_CODE":"US","MEAN_MOTION_DDOT":"0.0000000000000","SITE":"AFETR","RA_OF_ASC_NODE":"96.0746","EPOCH":"2022-08-21T22:00:00.999936","OBJECT_TYPE":"PAYLOAD","BSTAR":"-0.00050910000000","NORAD_CAT_ID":"51986","TLE_LINE2":"2 51986  53.2186  96.0746 0001655  52.8318 334.4410 15.08823378  1300","FILE":"3542671","OBJECT_ID":"2022-025AG","CLASSIFICATION_TYPE":"U","OBJECT_NAME":"STARLINK-3645","PERIOD":"95.439","TLE_LINE1":"1 51986U 22025AG  22233.91667824 -.00008378  00000-0 -50910-3 0  9991","APOAPSIS":"540.941","MEAN_ANOMALY":"334.4410","RCS_SIZE":"LARGE","DECAY_DATE":null,"REV_AT_EPOCH":"130","CENTER_NAME":"EARTH","MEAN_ELEMENT_THEORY":"SGP4","ELEMENT_SET_NO":"999","INCLINATION":"53.2186","ECCENTRICITY":"0.00016550","SEMIMAJOR_AXIS":"6917.931","GP_ID":"210693416","MEAN_MOTION_DOT":"-0.00008378","LAUNCH_DATE":"2022-03-09"}];
